LANDSAT 9               
1 49260U 21088A   24147.81456728  .00000732  00000+0  17250-3 0  9998
2 49260  98.1876 217.7947 0001011  89.7718 270.3596 14.57129656141578
